[{"OBJECT_NAME":"STARLINK-2380","OBJECT_ID":"2021-018N","EPOCH":"2026-03-10T00:00:02.999808","MEAN_MOTION":15.13878952,"ECCENTRICITY":0.00017365,"INCLINATION":53.0862,"RA_OF_ASC_NODE":230.0961,"ARG_OF_PERICENTER":70.6216,"MEAN_ANOMALY":14.3267,"EPHEMERIS_TYPE":0,"CLASSIFICATION_TYPE":"U","NORAD_CAT_ID":47799,"ELEMENT_SET_NO":999,"REV_AT_EPOCH":569,"BSTAR":0.058689592,"MEAN_MOTION_DOT":0.0117011,"MEAN_MOTION_DDOT":0},{"OBJECT_NAME":"FENGYUN 1C DEB","OBJECT_ID":"1999-025CMK","EPOCH":"2026-03-07T03:30:19.798272","MEAN_MOTION":15.19499855,"ECCENTRICITY":0.00275543,"INCLINATION":98.8642,"RA_OF_ASC_NODE":134.1649,"ARG_OF_PERICENTER":306.5016,"MEAN_ANOMALY":53.3676,"EPHEMERIS_TYPE":0,"CLASSIFICATION_TYPE":"U","NORAD_CAT_ID":31934,"ELEMENT_SET_NO":999,"REV_AT_EPOCH":62119,"BSTAR":0.0037988961,"MEAN_MOTION_DOT":0.0008222,"MEAN_MOTION_DDOT":0}]
